MALLIGYONG-1            
1 58400U 23179A   24057.80092561  .00006879  00000+0  31128-3 0  9995
2 58400  97.4197 306.3105 0007958 298.4929  61.5505 15.21196014 14788
